RAMSAT                  
1 48850U 98067SL  21214.44283495  .00005126  00000-0  96889-4 0  9992
2 48850  51.6423 113.5925 0003603 318.0835  41.9877 15.50252661  7640
SOAR                    
1 48851U 98067SM  21214.42574713  .00014055  00000-0  24194-3 0  9997
2 48851  51.6403 113.4758 0002762 308.6831  51.3912 15.51359818  7680
BD-28                   
1 48867U 98067SN  21214.44290191  .00005801  00000-0  10798-3 0  9995
2 48867  51.6424 113.5940 0002736   1.0471 359.0523 15.50414823  6399
MIR-SAT 1               
1 48868U 98067SP  21214.44556545  .00010597  00000-0  18967-3 0  9998
2 48868  51.6421 113.6111 0001900 322.3492  37.7364 15.50556528  6428
